[{"OBJECT_NAME":"STARLINK-4020","OBJECT_ID":"2022-053AZ","EPOCH":"2026-03-09T11:25:22.360800","MEAN_MOTION":15.08833448,"ECCENTRICITY":0.00013167,"INCLINATION":53.2167,"RA_OF_ASC_NODE":135.092,"ARG_OF_PERICENTER":101.7378,"MEAN_ANOMALY":258.3762,"EPHEMERIS_TYPE":0,"CLASSIFICATION_TYPE":"U","NORAD_CAT_ID":52703,"ELEMENT_SET_NO":999,"REV_AT_EPOCH":21000,"BSTAR":-3.5370036e-5,"MEAN_MOTION_DOT":-8.51e-6,"MEAN_MOTION_DDOT":0},{"OBJECT_NAME":"KUIPER-00164","OBJECT_ID":"2025-301B","EPOCH":"2026-03-09T22:00:01.999584","MEAN_MOTION":15.08488187,"ECCENTRICITY":0.00045568,"INCLINATION":51.8847,"RA_OF_ASC_NODE":66.2292,"ARG_OF_PERICENTER":84.8156,"MEAN_ANOMALY":198.9561,"EPHEMERIS_TYPE":0,"CLASSIFICATION_TYPE":"U","NORAD_CAT_ID":67134,"ELEMENT_SET_NO":999,"REV_AT_EPOCH":541,"BSTAR":0.00024752424,"MEAN_MOTION_DOT":3.618e-5,"MEAN_MOTION_DDOT":0}]
